H1 CPF 01  gfz 2022 12 05 01  8391 tandemx   
H2 1003001  6202 36605    2022 12 05 00 59 42 2022 12 10 00 00 42   120 1 1  0 0 0
H9
10 0 59918  20142.000000  0   -5929039.688   -212429.774   3491684.366
10 0 59918  20262.000000  0   -5424640.634     -9876.321   4236191.992
10 0 59918  20382.000000  0   -4821955.490    183162.247   4906121.711
10 0 59918  20502.000000  0   -4131758.273    361686.800   5489709.824
10 0 59918  20622.000000  0   -3366431.379    521157.194   5976723.113
10 0 59918  20742.000000  0   -2539734.430    657597.149   6358634.350
10 0 59918  20862.000000  0   -1666550.201    767684.184   6628766.121
10 0 59918  20982.000000  0    -762611.545    848824.065   6782401.704
10 0 59918  21102.000000  0     155783.740    899207.271   6816861.096
10 0 59918  21222.000000  0    1072066.065    917846.829   6731544.325
10 0 59918  21342.000000  0    1969691.749    904597.560   6527941.356
10 0 59918  21462.000000  0    2832440.695    860155.864   6209607.873
10 0 59918  21582.000000  0    3644710.228    786040.000   5782107.855
10 0 59918  21702.000000  0    4391800.140    684551.486   5252921.189
10 0 59918  21822.000000  0    5060182.788    558717.779   4631319.140
10 0 59918  21942.000000  0    5637756.022    412216.974   3928208.585
10 0 59918  22062.000000  0    6114072.645    249287.539   3155943.775
10 0 59918  22182.000000  0    6480539.448     74624.288   2328108.996
10 0 59918  22302.000000  0    6730580.992   -106738.929   1459277.876
10 0 59918  22422.000000  0    6859766.455   -289555.088    564752.211
10 0 59918  22542.000000  0    6865893.489   -468495.070   -339714.928
10 0 59918  22662.000000  0    6749027.241   -638282.089  -1238206.187
10 0 59918  22782.000000  0    6511492.807   -793825.144  -2114928.738
10 0 59918  22902.000000  0    6157822.329   -930347.894  -2954499.389
10 0 59918  23022.000000  0    5694658.635  -1043510.051  -3742219.028
10 0 59918  23142.000000  0    5130618.501  -1129517.919  -4464331.334
10 0 59918  23262.000000  0    4476119.861  -1185221.197  -5108260.177
10 0 59918  23382.000000  0    3743178.573  -1208194.932  -5662822.667
10 0 59918  23502.000000  0    2945178.320  -1196805.281  -6118414.566
10 0 59918  23622.000000  0    2096620.245  -1150256.689  -6467165.342
10 0 59918  23742.000000  0    1212857.521  -1068619.685  -6703063.001
10 0 59918  23862.000000  0     309819.185   -952841.012  -6822047.369
10 0 59918  23982.000000  0    -596272.596   -804734.459  -6822072.425
10 0 59918  24102.000000  0   -1489187.024   -626952.990  -6703137.350
10 0 59918  24222.000000  0   -2352969.058   -422942.224  -6467286.725
10 0 59918  24342.000000  0   -3172217.905   -196876.193  -6118577.896
10 0 59918  24462.000000  0   -3932355.899     46423.675  -5663019.393
10 0 59918  24582.000000  0   -4619887.854    301585.746  -5108478.398
10 0 59918  24702.000000  0   -5222643.043    562799.315  -4464556.050
10 0 59918  24822.000000  0   -5729998.159    823938.799  -3742433.613
10 0 59918  24942.000000  0   -6133075.281   1078699.212  -2954687.450
10 0 59918  25062.000000  0   -6424909.513   1320739.150  -2115076.124
10 0 59918  25182.000000  0   -6600582.090   1543827.858  -1238302.716
10 0 59918  25302.000000  0   -6657316.031   1741994.210   -339755.753
10 0 59918  25422.000000  0   -6594528.622   1909671.759    564767.354
10 0 59918  25542.000000  0   -6413839.440   2041837.279   1459345.193
10 0 59918  25662.000000  0   -6119034.993   2134139.894   2328221.242
10 0 59918  25782.000000  0   -5715989.101   2183016.524   3156090.589
10 0 59918  25902.000000  0   -5212541.247   2185789.863   3928377.586
10 0 59918  26022.000000  0   -4618335.922   2140746.858   4631497.487
10 0 59918  26142.000000  0   -3944628.907   2047196.495   5253096.621
10 0 59918  26262.000000  0   -3204065.952   1905505.714   5782268.110
10 0 59918  26382.000000  0   -2410437.769   1717113.158   6209740.998
10 0 59918  26502.000000  0   -1578415.532   1484519.385   6528037.756
10 0 59918  26622.000000  0    -723274.646   1211254.143   6731598.241
10 0 59918  26742.000000  0     139387.119    901822.345   6816869.734
10 0 59918  26862.000000  0     993933.355    561629.199   6782364.826
10 0 59918  26982.000000  0    1824971.241    196885.973   6628685.560
10 0 59918  27102.000000  0    2617627.528   -185502.574   6358514.079
10 0 59918  27222.000000  0    3357815.077   -578067.982   5976570.036
10 0 59918  27342.000000  0    4032485.880   -972922.244   5489532.967
10 0 59918  27462.000000  0    4629865.209  -1361914.921   4905931.181
10 0 59918  27582.000000  0    5139663.092  -1736799.892   4235998.488
10 0 59918  27702.000000  0    5553260.308  -2089408.041   3491499.523
10 0 59918  27822.000000  0    5863863.291  -2411823.622   2685524.658
10 0 59918  27942.000000  0    6066623.155  -2696559.440   1832258.623
10 0 59918  28062.000000  0    6158717.469  -2936725.978    946727.813
10 0 59918  28182.000000  0    6139392.419  -3126191.486     44528.808
10 0 59918  28302.000000  0    6009961.955  -3259727.614   -858454.482
10 0 59918  28422.000000  0    5773765.759  -3333137.400  -1746340.382
10 0 59918  28542.000000  0    5436084.506  -3343361.245  -2603536.907
10 0 59918  28662.000000  0    5004018.745  -3288559.750  -3415021.085
10 0 59918  28782.000000  0    4486332.767  -3168171.118  -4166605.224
10 0 59918  28902.000000  0    3893268.592  -2982942.695  -4845184.393
10 0 59918  29022.000000  0    3236334.070  -2734934.759  -5438960.470
10 0 59918  29142.000000  0    2528072.713  -2427498.118  -5937637.905
10 0 59918  29262.000000  0    1781821.462  -2065228.065  -6332591.824
10 0 59918  29382.000000  0    1011458.227  -1653893.495  -6617007.958
10 0 59918  29502.000000  0     231144.342  -1200342.492  -6785989.132
10 0 59918  29622.000000  0    -544931.748   -712388.528  -6836629.967
10 0 59918  29742.000000  0   -1302806.356   -198678.132  -6768060.751
10 0 59918  29862.000000  0   -2028986.117    331458.789  -6581460.563
10 0 59918  29982.000000  0   -2710682.503    868173.926  -6280038.397
10 0 59918  30102.000000  0   -3336032.225   1401278.472  -5868984.245
10 0 59918  30222.000000  0   -3894302.309   1920431.818  -5355390.127
10 0 59918  30342.000000  0   -4376077.445   2415338.891  -4748139.693
10 0 59918  30462.000000  0   -4773424.277   2875953.250  -4057765.118
10 0 59918  30582.000000  0   -5080028.865   3292680.093  -3296274.090
10 0 59918  30702.000000  0   -5291306.111   3656576.803  -2476949.673
10 0 59918  30822.000000  0   -5404476.642   3959546.493  -1614122.706
10 0 59918  30942.000000  0   -5418609.485   4194518.537   -722921.802
10 0 59918  31062.000000  0   -5334628.332   4355611.804    180994.831
10 0 59918  31182.000000  0   -5155280.475   4438277.253   1081723.638
10 0 59918  31302.000000  0   -4885067.278   4439412.492   1963403.175
10 0 59918  31422.000000  0   -4530139.030   4357447.471   2810503.068
10 0 59918  31542.000000  0   -4098156.839   4192399.779   3608105.436
10 0 59918  31662.000000  0   -3598125.436   3945896.872   4342173.786
10 0 59918  31782.000000  0   -3040202.049   3621165.238   4999803.293
10 0 59918  31902.000000  0   -2435485.163   3222987.079   5569448.522
10 0 59918  32022.000000  0   -1795788.577   2757626.107   6041123.778
10 0 59918  32142.000000  0   -1133405.897   2232724.185   6406573.455
10 0 59918  32262.000000  0    -460871.470   1657170.929   6659408.927
10 0 59918  32382.000000  0     209276.256   1040950.668   6795214.158
10 0 59918  32502.000000  0     864728.481    394967.681   6811618.177
10 0 59918  32622.000000  0    1493631.094   -269146.317   6708333.451
10 0 59918  32742.000000  0    2084798.116   -939240.889   6487161.425
10 0 59918  32862.000000  0    2627910.407  -1602868.601   6151963.335
10 0 59918  32982.000000  0    3113697.506  -2247515.739   5708598.062
10 0 59918  33102.000000  0    3534098.949  -2860839.344   5164824.999
10 0 59918  33222.000000  0    3882401.898  -3430905.467   4530174.392
10 0 59918  33342.000000  0    4153353.000  -3946425.007   3815785.325
10 0 59918  33462.000000  0    4343241.727  -4396982.031   3034213.181
10 0 59918  33582.000000  0    4449953.356  -4773249.418   2199209.447
10 0 59918  33702.000000  0    4472989.907  -5067185.961   1325476.628
10 0 59918  33822.000000  0    4413457.484  -5272210.177    428403.688
10 0 59918  33942.000000  0    4274020.210  -5383345.792   -476212.745
10 0 59918  34062.000000  0    4058824.130  -5397336.481  -1372453.747
10 0 59918  34182.000000  0    3773389.863  -5312725.815  -2244567.825
10 0 59918  34302.000000  0    3424478.199  -5129900.010  -3077255.326
10 0 59918  34422.000000  0    3019932.965  -4851093.283  -3855941.420
10 0 59918  34542.000000  0    2568504.233  -4480356.713  -4567032.271
10 0 59918  34662.000000  0    2079657.247  -4023491.443  -5198149.806
10 0 59918  34782.000000  0    1563372.938  -3487947.968  -5738339.654
10 0 59918  34902.000000  0    1029944.635  -2882697.236  -6178251.019
10 0 59918  35022.000000  0     489773.897  -2218075.348  -6510288.146
10 0 59918  35142.000000  0     -46830.198  -1505603.558  -6728730.663
10 0 59918  35262.000000  0    -569843.533   -757787.905  -6829821.778
10 0 59918  35382.000000  0   -1069708.850     12097.668  -6811825.425
10 0 59918  35502.000000  0   -1537506.201    790241.520  -6675052.009
10 0 59918  35622.000000  0   -1965108.412   1562535.553  -6421853.421
10 0 59918  35742.000000  0   -2345318.993   2314824.547  -6056586.915
10 0 59918  35862.000000  0   -2671992.682   3033160.274  -5585549.290
10 0 59918  35982.000000  0   -2940135.553   3704058.020  -5016879.254
10 0 59918  36102.000000  0   -3145984.158   4314750.822  -4360428.790
10 0 59918  36222.000000  0   -3287060.973   4853436.505  -3627602.143
10 0 59918  36342.000000  0   -3362203.608   5309510.744  -2831165.370
10 0 59918  36462.000000  0   -3371568.721   5673782.685  -1985031.175
10 0 59918  36582.000000  0   -3316610.166   5938669.629  -1104018.649
99
